{
    "links": {
        "self": "http://www.neowsapp.com/rest/v1/neo/3879539?api_key=iIulBulltgU6a56xZRHN4H3l9WmuAYTsLGpBGhQ2"
    },
    "id": "3879539",
    "neo_reference_id": "3879539",
    "name": "(2019 UC5)",
    "designation": "2019 UC5",
    "nasa_jpl_url": "http://ssd.jpl.nasa.gov/sbdb.cgi?sstr=3879539",
    "absolute_magnitude_h": 26.5,
    "estimated_diameter": {
        "kilometers": {
            "estimated_diameter_min": 0.0133215567,
            "estimated_diameter_max": 0.0297879063
        },
        "meters": {
            "estimated_diameter_min": 13.3215566698,
            "estimated_diameter_max": 29.7879062798
        },
        "miles": {
            "estimated_diameter_min": 0.008277629,
            "estimated_diameter_max": 0.0185093411
        },
        "feet": {
            "estimated_diameter_min": 43.7058959846,
            "estimated_diameter_max": 97.7293544391
        }
    },
    "is_potentially_hazardous_asteroid": false,
    "close_approach_data": [
        {
            "close_approach_date": "1963-01-12",
            "close_approach_date_full": "1963-Jan-12 21:10",
            "epoch_date_close_approach": -219898200000,
            "relative_velocity": {
                "kilometers_per_second": "7.9212788407",
                "kilometers_per_hour": "28516.6038265024",
                "miles_per_hour": "17719.1086387509"
            },
            "miss_distance": {
                "astronomical": "0.0879693907",
                "lunar": "34.2200929823",
                "kilometers": "13160033.473917809",
                "miles": "8177265.6158474042"
            },
            "orbiting_body": "Mars"
        },
        {
            "close_approach_date": "2019-10-20",
            "close_approach_date_full": "2019-Oct-20 09:09",
            "epoch_date_close_approach": 1571562540000,
            "relative_velocity": {
                "kilometers_per_second": "6.3864348884",
                "kilometers_per_hour": "22991.1655981405",
                "miles_per_hour": "14285.8162018001"
            },
            "miss_distance": {
                "astronomical": "0.0252349816",
                "lunar": "9.8164078424",
                "kilometers": "3775099.496849192",
                "miles": "2345738.0540231696"
            },
            "orbiting_body": "Earth"
        }
    ],
    "orbital_data": {
        "orbit_id": "4",
        "orbit_determination_date": "2019-11-05 06:05:47",
        "first_observation_date": "2019-10-23",
        "last_observation_date": "2019-11-04",
        "data_arc_in_days": 12,
        "observations_used": 28,
        "orbit_uncertainty": "8",
        "minimum_orbit_intersection": ".0117261",
        "jupiter_tisserand_invariant": "4.181",
        "epoch_osculation": "2458782.5",
        "eccentricity": ".3902913862662746",
        "semi_major_axis": "1.653126265645456",
        "inclination": "5.027363642332149",
        "ascending_node_longitude": "21.33967362567095",
        "orbital_period": "776.3498370608862",
        "perihelion_distance": "1.007925323753501",
        "perihelion_argument": "352.064629975484",
        "aphelion_distance": "2.29832720753741",
        "perihelion_time": "2458766.295330383704",
        "mean_anomaly": "7.514242656315579",
        "mean_motion": ".4637084762751957",
        "equinox": "J2000",
        "orbit_class": {
            "orbit_class_type": "APO",
            "orbit_class_description": "Near-Earth asteroid orbits which cross the Earth’s orbit similar to that of 1862 Apollo",
            "orbit_class_range": "a (semi-major axis) > 1.0 AU; q (perihelion) < 1.017 AU"
        }
    },
    "is_sentry_object": false
}